id,strLocation,latitude,longitude,city,state,zip
27689-248404,Carson & Wilmington,33.831519,-118.239858,Carson,CA,90745
5774-5505,Atlantic & San Antonio,33.837239,-118.184724,Long Beach,CA,90807
74620-93749,Vons-Long Beach #3519,33.841027,-118.182765,Long Beach,CA,90807
5928-20999,"Avalon & Dominguez, Carson",33.841631,-118.262325,Carson,CA,90746
76468-95631,Target Carson T-2026,33.843971,-118.263345,Carson,CA,90746
21740-195884,Alameda & 91,33.876843,-118.217943,Compton,CA,90220
76769-107980,Target Long Beach/Sgnal Hill T-2319,33.816645,-118.181948,Long Beach,CA,90755
9788-97840,"Del Amo & Avalon, Carson",33.847785,-118.264379,Carson,CA,90746
76829-107981,Target Compton T-2275,33.879794,-118.21946,Compton,CA,90220
23315-218444,Spring & California,33.811997,-118.18111,Signal Hill,CA,90755
5721-246526,Long Beach Blvd. & Willow St,33.805306,-118.189789,Long Beach,CA,90806
9582-97226,"Central & The 91 Fwy, Compton",33.874262,-118.247704,Compton,CA,90220
29703-254264,Carson & Cherry,33.83219,-118.164436,Long Beach,CA,90807
5787-10754,Willow & Cherry,33.804118,-118.169935,Signal Hill,CA,90755
9411-96116,"Avalon & 91 Fwy, Carson",33.871835,-118.270445,Carson,CA,90746
73524-23311,Albertsons-Carson #3859,33.80777,-118.272137,Carson,CA,90745
6460-39339,"Sepulveda & Main, Carson",33.807723,-118.272125,Carson,CA,90749
6705-75941,"Torrance & I-110, Carson",33.841313,-118.285423,Carson,CA,90745
76983-136851,Target Long Beach NW T-2424,33.877283,-118.165991,Long Beach,CA,90805
29861-254290,South & Downey,33.860468,-118.150317,Long Beach,CA,90805
19665-192265,Lakewood & Cover,33.828681,-118.142979,Long Beach,CA,90808
76636-111374,Target Carson T-2328,33.808784,-118.286285,Carson,CA,90745
56922-290619,T-1409 TARGET LAKEWOOD CENTER MALL,33.850518,-118.142128,Lakewood,CA,90712
5702-6746,Lakewood Center - North Wing,33.851366,-118.14083,Lakewood,CA,90712
6856-82370,"Carson & Normandie, Torrance",33.831768,-118.297594,Torrance,CA,90502
5960-40859,"Sepulveda & Vermont, Harbor City",33.809793,-118.290023,Harbor City,CA,90710
5842-20739,"Paramount & Jackson, Paramount",33.885874,-118.159759,Paramount,CA,90723
5650-2075,Candlewood St. & Lakewood Blvd.,33.854041,-118.136447,Lakewood,CA,90712
52991-274148,Albertsons - Lakewood #0191,33.847686,-118.134381,Lakewood,CA,90712
6655-69821,Long Beach & 5th,33.772864,-118.189133,Long Beach,CA,90802
10307-99844,"Rosecrans & Central, Compton",33.903022,-118.255055,Compton,CA,90222
23924-234244,Broadway & Magnolia,33.769557,-118.197718,Long Beach,CA,90802
5221-290,Pine & 3rd,33.770159,-118.192195,Long Beach,CA,90802
9380-96430,Lakewood & Artesia,33.874989,-118.142364,Bellflower,CA,90706
5651-1915,190th & Normandie,33.858028,-118.302987,Torrance,CA,90501
75948-104482,Renaissance Long Beach - Gift Shop,33.767646,-118.191295,Long Beach,CA,90802
26770-245009,Torrance & Western,33.837539,-118.308868,Torrance,CA,90501
12956-152240,Vons-Long Beach #2861,33.769293,-118.184991,Long Beach,CA,90802
27432-247557,The Pike Outlets,33.765555,-118.192664,Long Beach,CA,90802
51994-258946,Ralphs Torrance #132,33.830027,-118.310939,Torrance,CA,90501
29579-254224,Ocean & Alamitos,33.766427,-118.183842,Long Beach,CA,90802
11459-103349,"Alondra & Lakewood, Paramount",33.889484,-118.144093,Paramount,CA,90723
5795-285943,Ximeno Avenue & Atherton,33.789673,-118.139158,Long Beach,CA,90815
5645-1961,"Artesia & Western, Gardena",33.873298,-118.308753,Gardena,CA,90248
79666-114970,Von's - Long Beach #3076,33.790551,-118.137446,Long Beach,CA,90815
5808-16794,Spring & Bellflower,33.808583,-118.124935,Long Beach,CA,90815
5795-18980,PCH & Ximeno,33.787807,-118.138834,Long Beach,CA,90804
9382-96453,Redondo & 7th,33.775204,-118.152613,Long Beach,CA,90804
20680-207644,Western & Lomita,33.797534,-118.307163,Harbor City,CA,90710
9419-95886,"Del Amo & Woodruff, Lakewood",33.846863,-118.11607,Lakewood,CA,90713
5735-8709,"Washington & Allen, Pasadena",34.168988,-118.112554,Pasadena,CA,91104
23004-226864,"Lake & Orange Grove, Pasadena",34.158723,-118.132721,Pasadena,CA,91104
649-383,La Canada,34.200542,-118.18902,La Canada,CA,91011
5860-29255,"Fair Oaks & Orange Grove, Pasadena",34.157476,-118.151001,Pasadena,CA,91103
6594-64802,"Hill & Walnut, East Pasadena",34.148859,-118.12158,Pasadena,CA,91106
20839-185185,Ralphs Pasadena #96,34.148999,-118.131489,Pasadena,CA,91101
56285-286643,Target La Canada T-3293,34.205279,-118.198559,La Canada,CA,91011
76198-94545,Target Pasadena T-883,34.146821,-118.134529,Pasadena,CA,91101
6838-82304,"Colorado & Bonnie, Pasadena",34.146175,-118.115502,Pasadena,CA,91106
25717-241971,Foothill & San Gabriel,34.150247,-118.09398,Pasadena,CA,91107
5514-1448,Pasadena Lake - Wells Fargo,34.144349,-118.132051,Pasadena,CA,91101
5881-231045,Colorado & Euclid,34.145671,-118.143135,Pasadena,CA,91101
15554-161368,Vons-Pasadena #2858,34.146098,-118.101906,Pasadena,CA,91107
17348-173405,Pasadena Convention Ctr-Green Stree,34.144508,-118.144181,Pasadena,CA,91101
582-212444,Colorado & De Lacey,34.145917,-118.152507,Pasadena,CA,91105
5657-1751,Sierra Madre Villa & Foothill,34.150375,-118.080344,Pasadena,CA,91107
47266-253492,Ralphs - Pasadena #730,34.151139,-118.075478,Pasadena,CA,91107
14995-156785,Target Pasadena East T-1332,34.146828,-118.084137,Pasadena,CA,91107
577-226,Hastings Ranch,34.150464,-118.073182,Pasadena,CA,91107
535-480,Lake & California,34.136012,-118.132483,Pasadena,CA,91101
5266-693,Sierra Madre,34.162443,-118.052837,Sierra Madre,CA,91024
5383-1153,Fairoaks & California - Pasadena,34.136273,-118.150208,Pasadena,CA,91105
5705-7827,Verdugo & 2 Freeway,34.206002,-118.217606,La Canada,CA,91011
74762-98340,Vons-Pasadena #2152,34.135937,-118.15315,Pasadena,CA,91105
19571-190724,Rosemead & Del Mar,34.142279,-118.073236,Pasadena,CA,91107
14449-122584,"Arroyo & Fillmore, Pasadena",34.132846,-118.147837,Pasadena,CA,91105
51757-279004,Foothill Blvd & Castle,34.216311,-118.226241,La Canada Flintridge,CA,91011
16782-10773,Honolulu & Ocean View,34.205275,-118.22782,Montrose,CA,91020
610-325,San Marino,34.122358,-118.105798,San Marino,CA,91108
74522-60799,Vons - Arcadia #3208,34.132925,-118.066385,Arcadia,CA,91007
75980-98881,Vons- Los Angeles #2655,34.13639,-118.189348,Los Angeles,CA,90041
5648-1811,Fair Oaks & State Street,34.120017,-118.150094,South Pasadena,CA,91030
5301-219,La Crescenta - Foothill & Rosemont,34.222108,-118.235498,La Crescenta,CA,91214
26031-243127,Rosemead & Duarte,34.12274,-118.072538,San Gabriel,CA,91775
5513-1445,Fair Oaks & El Centro (Wells Fargo),34.114763,-118.150166,Pasadena,CA,91030
52847-253491,Ralphs - Arcadia #41,34.151603,-118.024814,Arcadia,CA,91006
74686-96297,Vons-South Pasadena #2228,34.11178,-118.150566,South Pasadena,CA,91030
537-481,Arcadia,34.124874,-118.056934,Arcadia,CA,91007
8617-93468,"Colorado & Eagle Rock, Eagle Rock",34.139093,-118.215373,Los Angeles,CA,90041
74599-87828,Vons-La Crescenta #2598,34.230013,-118.248845,La Crescenta,CA,91214
28507-249685,Foothill & Madison,34.150855,-118.018276,Monrovia,CA,91016
3941-141830,Target Los Angeles Eagle T-1408,34.142155,-118.22339,Los Angeles,CA,90041
19848-168484,Figueroa & York,34.114872,-118.183339,Los Angeles,CA,90042
6980-86481,"Huntington & Fremont, S. Pasadena",34.104295,-118.152868,South Pasadena,CA,91030
5497-1534,Huntington & 2nd,34.139778,-118.023892,Arcadia,CA,91006
11445-251305,Foothill & Willalee,34.234368,-118.255964,Glendale,CA,91214
23261-228525,Colorado & Griswold,34.14258,-118.235097,Glendale,CA,91205
74571-79835,Vons-Glendale #1707,34.153507,-118.24385,Glendale,CA,91206
6746-77940,"Las Tunas & Rosemead, Temple City",34.103739,-118.074136,Temple City,CA,91780
5239-406,Monrovia,34.140448,-118.012973,Monrovia,CA,91016
73672-96295,Albertsons-Arcadia #561,34.107541,-118.023491,Arcadia,CA,91006
27886-249007,Santa Anita & Live Oak,34.107577,-118.031275,Arcadia,CA,91006
29862-254944,Lower Azusa Rd & Ellis Lane,34.089701,-118.054096,El Monte,CA,91731
74659-94830,Vons-Monrovia #2200,34.150117,-118.00174,Monrovia,CA,91016
5593-1450,Foothill & Myrtle - Monrovia,34.151145,-118.002447,Monrovia,CA,91016
24175-235449,Target Duarte T-302,34.13779,-117.982958,Duarte,CA,91010
17415-158784,"Santa Anita & Valley, El Monte",34.076974,-118.03983,El Monte,CA,91731
5473-244109,Huntington Drive & Buena Vista,34.139818,-117.977754,Duarte,CA,91010
15831-152239,Longo Toyota-El Monte,34.071681,-118.024907,El Monte,CA,91731
20075-198884,City of Hope,34.129518,-117.971164,Duarte,CA,91010
48425-262064,Valley & Rio Hondo,34.081363,-118.064376,Rosemead,CA,91770
8749-94565,"Valley & Garvey, El Monte",34.063158,-118.01938,El Monte,CA,91732
47697-257764,Santa Anita & Garvey,34.06292,-118.042307,El Monte,CA,91733
21249-210126,Target Rosemead T-1411,34.074556,-118.070002,Rosemead,CA,91770
6713-76480,"Flair & Aerojet, El Monte",34.0716,-118.068059,El Monte,CA,91731
5976-43199,"Rosemead & The 10 Fwy, Rosemead",34.074829,-118.072703,Rosemead,CA,91770
6911-84582,Baldwin Park & Francisquito,34.070629,-117.978894,Baldwin Park,CA,91706
25255-186787,Kaiser Permanente @ Baldwin Park,34.064702,-117.986578,Baldwin Park,CA,91706
47131-256288,Target Baldwinpark T-1033,34.069442,-117.977086,Baldwin Park,CA,91706
9326-95961,"Puente & Francisquito, Baldwin Park",34.064673,-117.96761,Baldwin Park,CA,91706
54318-285611,SHERATON SAN GABRIEL - LS,34.080046,-118.097293,SAN GABRIEL,CA,91776
5880-32099,"Puente & The 10 Fwy, Baldwin Park",34.071223,-117.958942,Baldwin Park,CA,91706
3419-93205,"Arrow Hwy & 4th, Irwindale",34.106573,-117.938351,Irwindale,CA,91706
27215-245385,Durfee & Thienes,34.043002,-118.032469,South El Monte,CA,91733
6651-74906,"San Gabriel & Garvey, Rosemead",34.062997,-118.089994,Rosemead,CA,91770
28901-250604,Foothill & Todd,34.133381,-117.926379,Azusa,CA,91702
9385-96258,"Valley & Almansor, Alhambra",34.078844,-118.114595,Alhambra,CA,91801
23645-231368,Crossroads & 60 Fwy,34.030634,-118.00872,City of Industry,CA,91746
5380-673,Main & 1st - Alhambra,34.094744,-118.128132,Alhambra,CA,91801
76365-97162,Target Alhambra T-184,34.091465,-118.13624,Alhambra,CA,91801
47590-258972,Albertsons - Tujunga #3175,34.240693,-118.268048,Tujunga,CA,91042
20827-185184,Ralphs Glendale #97,34.164417,-118.256388,Glendale,CA,91202
14152-113347,Stocker & Pacific,34.163372,-118.264786,Glendale,CA,91202
5814-15013,"Pacific & Burchett, Glendale",34.157463,-118.264385,Glendale,CA,91203
520-464,Glendale,34.146987,-118.254783,Glendale,CA,91203
76784-111370,Target Glendale T-2307,34.14359,-118.258064,Glendale,CA,91204
6814-81120,"Glenoaks & Western, Glendale",34.171748,-118.289455,Glendale,CA,91201
13286-106226,"Eagle Rock & York, Eagle Rock",34.123724,-118.219561,Los Angeles,CA,90041
75385-104362,Compass @ Disney GC3,34.160615,-118.286041,Glendale,CA,91201
17878-171164,Compass @ Walt Disney Imagineering,34.162044,-118.289159,Glendale,CA,91201
52041-279765,TARGET EAGLE ROCK SOUTH T-3262,34.122715,-118.225316,Eagle Rock South,CA,90065
11894-105944,"Central & Acacia, Glendale",34.135006,-118.258098,Glendale,CA,91204
5708-8027,Alameda & San Fernando,34.174582,-118.300705,Burbank,CA,91502
79602-106070,Vons - Glendale #2254,34.129386,-118.258654,GLENDALE,CA,91204
74887-99591,Vons - Tujunga #2124,34.259272,-118.301617,Tujunga,CA,91042
24874-238884,Central Ave & San Fernando Rd,34.127014,-118.257896,Glendale,CA,91204
607-322,Downtown Burbank,34.182518,-118.310715,Burbank,CA,91502
5793-8030,Los Feliz & Seneca,34.126474,-118.263433,Los Angeles,CA,90039
8179-154015,Target Azusa T-2627,34.13567,-117.907499,Azusa,CA,91702
9824-98054,"Foothill & Azusa, Azusa",34.133188,-117.907892,Azusa,CA,91702
6447-244769,Citrus & Alosta,34.1285,-117.890486,Azusa,CA,91702
54716-278730,Azusa Pacific University-East Campu,34.13039,-117.888497,AZUSA,CA,91702
5424-231365,Grand & Foothill,34.136209,-117.870742,Glendora,CA,91741
25057-238336,Citrus & Arrow,34.106475,-117.889885,Covina,CA,91702
29985-254685,Route 66 & Vermont,34.128552,-117.866416,Glendora,CA,91740
73523-36440,Albertsons-Glendora #0601,34.128663,-117.864773,Glendora,CA,91740
74624-94035,Vons-Glendora #2169,34.136234,-117.86082,Glendora,CA,91741
23741-228807,Azusa and Badillo,34.087072,-117.908159,Covina,CA,91722
9685-97224,"Citrus & College, Covina",34.087327,-117.89046,Covina,CA,91723
8747-240837,Grand & Cypress,34.095926,-117.872269,Covina,CA,91724
5583-231345,Citrus & Rowland,34.078635,-117.890557,Covina,CA,91723
6744-77941,Vincent & West Covina Pkwy,34.068345,-117.927239,West Covina,CA,91790
76509-99294,Target West Covina T-1028,34.073035,-117.885376,West Covina,CA,91791
9548-96260,Route 66 & Lone Hill,34.128536,-117.83023,Glendora,CA,91740
11031-95816,"Barranca & I-10, West Covina",34.072436,-117.881852,West Covina,CA,91791
5317-861,San Dimas,34.106436,-117.826072,San Dimas,CA,91773
76658-99293,Target San Dimas T-767,34.104018,-117.823645,San Dimas,CA,91773
23260-228804,Hacienda and Fairgrove,34.044449,-117.949555,La Puente,CA,91744
9746-95803,"San Fernando & Walnut, Burbank",34.186849,-118.317872,Burbank,CA,91504
10802-102285,"Glenoaks & Keeler, Burbank",34.19864,-118.327091,Burbank,CA,91504
5870-27267,Victory & Empire,34.191495,-118.328926,Burbank,CA,91502
6915-197405,8241 Foothill Blvd.,34.259917,-118.313059,Sunland,CA,91040
15581-142093,Target Burbank T-1362,34.191654,-118.32995,Burbank,CA,91504
569-511,Alameda & Shelton,34.162565,-118.314589,Burbank,CA,91506
74660-25867,Vons-Burbank #2214,34.162446,-118.314526,Burbank,CA,91506
19692-201264,Verdugo & Olive,34.168004,-118.321947,Burbank,CA,91506
26998-245235,Ralphs Burbank #648,34.184123,-118.339378,Burbank,CA,91505
27925-248184,Disney Riverside,34.154956,-118.324153,Burbank,CA,91506
47400-253893,Providence Saint Joseph Burbank,34.157663,-118.328337,Burbank,CA,91505
10940-102763,Glendale & Glenfeliz,34.116447,-118.262941,Los Angeles,CA,90039
10801-101907,Hollywood Way & Airport Access,34.195027,-118.350188,Burbank,CA,91505
73671-93060,Albertsons-Palmdale #1333,34.585592,-118.149037,Palmdale,CA,93551
9739-96736,Palmdale Blvd & 3rd,34.579537,-118.125038,Palmdale,CA,93550
74585-83082,Vons-Palmdale #3017,34.602873,-118.184338,Palmdale,CA,93551
23531-196824,Rancho Vista & Town Center,34.613014,-118.199657,Palmdale,CA,93551
5924-40339,Rancho Vista & Lowes Drive,34.601204,-118.143415,Palmdale,CA,93551
70331-90574,Target Santa Clarita T-2030,34.4482,-118.4214,Santa Clarita,CA,91387
8823-94943,10th St West & West Ave O-8,34.607218,-118.147264,Palmdale,CA,93551
53437-283964,Palmdale & 20th St E,34.580004,-118.096389,Palmdale,CA,93550
20489-206264,Sand Canyon & 14 Fwy,34.426662,-118.425256,Santa Clarita,CA,91387
19885-173855,Vons-Santa Clarita #3138,34.426728,-118.425832,Santa Clarita,CA,91387
10111-99529,East Ave S & 47th St East,34.558628,-118.046611,Palmdale,CA,93552
25204-236912,47th Street East & Palmdale Blvd,34.575825,-118.045475,Palmdale,CA,93552
76818-111371,Target Palmdale East ST-2350,34.577765,-118.044394,Palmdale,CA,93552
6711-40579,Via Princessa & Sierra Highway,34.406105,-118.466075,Santa Clarita,CA,91321
74623-93726,Vons-Lancaster #2029,34.661522,-118.20234,Lancaster,CA,93536
5498-1420,Soledad Canyon & Whites Canyon,34.41593,-118.474837,Canyon Country,CA,91351
50216-271955,Albertsons - Lancaster #1322,34.672938,-118.165796,Lancaster,CA,93536
6982-88600,Ave K & 20th St. West,34.67474,-118.167937,Lancaster,CA,93536
56918-290644,Target - Lancaster T-0245,34.673679,-118.147916,Lancaster,CA,93534
19566-174784,Avenue K & 10th Street West,34.675064,-118.147649,Lancaster,CA,93534
25059-221464,Foothill & Hubbard,34.308674,-118.431383,Sylmar,CA,91342
20227-204225,Golden Valley & Soledad Canyon,34.418389,-118.502972,Santa Clarita,CA,91350
10144-98951,Bouquet Canyon & Haskell Canyon,34.443365,-118.510597,Saugus,CA,91350
73603-80601,Albertsons - Santa Clarit #1360,34.443213,-118.511436,Saugus,CA,91350
6984-85681,Challenger Way & East Ave K,34.675299,-118.114351,Lancaster,CA,93535
23285-226124,Valley Central & West Ave J,34.691343,-118.172148,Lancaster,CA,93536
50527-273484,Lancaster & Gadsden,34.697637,-118.145971,Lancaster,CA,93534
5915-34639,Truman & Maclay,34.284606,-118.44165,San Fernando,CA,91340
13220-107230,Avenue I & 20th St West,34.704321,-118.165036,Lancaster,CA,93534
5942-45259,Copper Hill & Seco Canyon,34.459827,-118.534052,Santa Clarita,CA,91350
10182-99743,Newall & Carl Ct,34.372046,-118.516323,Santa Clarita,CA,91321
47586-258975,VONS - Saugus #3325,34.426942,-118.535224,Saugus,CA,91350
6572-255995,Newhall Ranch & Bouquet Canyon,34.426543,-118.537179,Santa Clarita,CA,91354
27293-245024,Sunland & I-5,34.221153,-118.367015,Sun Valley,CA,91352
57751-291783,TARGET PACOIMA T-0183,34.245446,-118.419236,Pacoima,CA,91331
5305-457,McBean & Decoro,34.445238,-118.55164,Valencia,CA,91354
53506-257451,Ralphs Valencia #147,34.445329,-118.553292,Valencia,CA,91354
5789-242449,Orchard Village & Lyons,34.380022,-118.542096,Santa Clarita,CA,91355
562-289033,McBean Pkwy & Arroyo Pk,34.404529,-118.55111,Valencia,CA,91355
47671-258708,Albertsons - Alhambras 2543,34.086317,-118.149934,Alhambra,CA,91803
6794-41839,Fremont Ave & Mission Rd,34.080427,-118.152128,Alhambra,CA,91803
11220-104633,"Atlantic & Valley, Alhambra",34.077117,-118.134113,Alhambra,CA,91803
75476-103411,Barnes And Noble @ Cal State Univ L,34.068399,-118.169001,Los Angeles,CA,90032
55230-286642,Figueroa & Cypress,34.086461,-118.21944,Los Angeles,CA,90065
13045-153025,Health Science Campus - USC,34.060608,-118.205674,Los Angeles,CA,90033
51056-275764,Marengo & Cornwell,34.055688,-118.20455,Los Angeles,CA,90033
5348-860,Atlantic Square,34.039067,-118.143421,Monterey Park,CA,91754
9328-96241,"3rd & Gage, Los Angeles",34.033622,-118.184217,Los Angeles,CA,90063
76211-90561,Target North Hollywood T-294,34.188116,-118.371356,North Hollywood,CA,91606
13365-107349,Sherman Way & Whitsett,34.200935,-118.407993,North Hollywood,CA,91605
26769-244484,Lankershim & Erwin,34.181785,-118.384512,North Hollywood,CA,91606
53951-285949,Verdugo & Hollywood,34.160527,-118.344288,Burbank,CA,91505
51180-276893,Sherman Way & Woodman,34.20157,-118.43046,Los Angeles,CA,91405
29863-254896,San Fernando Mission & Sepulveda,34.272352,-118.467857,Mission Hills,CA,91345
5839-26187,Victory & Coldwater,34.186456,-118.413534,North Hollywood,CA,91606
49365-252145,Target LA Mission Hills T-3218,34.25761,-118.466828,Los Angeles,CA,91345
5642-1690,Lankershim & Magnolia,34.164768,-118.374289,North Hollywood,CA,91601
5654-2705,Oak Street & Pass Avenue,34.155709,-118.346967,Burbank,CA,91505
5833-24687,Devonshire & Langdon,34.257689,-118.469819,Mission Hills,CA,91345
9683-97622,Van Nuys & Michaels,34.214563,-118.448472,Panorama City,CA,91402
74836-98349,Vons-Burbank #3083,34.155106,-118.3457,Burbank,CA,91505
20895-192164,Laurel Canyon & Burbank,34.171631,-118.396805,Valley Village,CA,91607
23120-223787,Bon Appetit @ Disney Channel Buildi,34.152768,-118.341392,Burbank,CA,91505
75753-95299,Warner Bros Studio Plaza Lobby,34.151988,-118.336359,Burbank,CA,91505
75545-66180,Warner Brothers Studio,34.1505,-118.340065,Burbank,CA,91522
5211-513,Alameda & Evergreen,34.152513,-118.345785,Burbank,CA,91505
22417-220625,Lankershim & La Maida,34.158875,-118.371257,North Hollywood,CA,91601
9596-97295,Tujunga & Camarillo,34.157886,-118.378736,North Hollywood,CA,91602
6760-78102,Copper Hill & Newhall Ranch,34.444142,-118.574408,Santa Clarita,CA,91355
76363-97160,Target Valencia T-257,34.420486,-118.561716,Valencia,CA,91355
6584-65300,Westfield Valencia Town Cntr -Lvl 1,34.415519,-118.557063,Santa Clarita,CA,91355
10852-101663,Castaic Rd & Lake Hughes,34.495397,-118.621991,Castaic,CA,91384
6810-82121,Valencia & McBean,34.412895,-118.558992,Santa Clarita,CA,91355
9871-98346,Magic Mountain & Tourney,34.423702,-118.579263,Valencia,CA,91355
6902-85300,The Old Road & Rye Canyon,34.432797,-118.591035,Valencia,CA,91355
53767-257450,Ralphs Castaic #84,34.457592,-118.617347,Castaic,CA,91384
6693-75040,Valencia & The Old Road,34.40811,-118.579298,Santa Clarita,CA,91381
20139-197084,Hasley Canyon & Commerce Center,34.45102,-118.624665,Castaic,CA,91384
5308-314,The Old Road & Stevenson Ranch Pkwy,34.392124,-118.573157,Stevenson Ranch,CA,91381
74506-25650,Vons-Valencia #2030,34.391126,-118.572272,Valencia,CA,91355
5779-16456,Foothill & Wheeler,34.119187,-117.781306,La Verne,CA,91750
74658-94672,Vons-Claremont #2155,34.121464,-117.706665,Claremont,CA,91711
79737-104055,Vons - La Verne #2832,34.116526,-117.774863,LA VERNE,CA,91750
7972-95559,Foothill & D Street,34.113294,-117.76398,La Verne,CA,91750
76577-99296,Target La Verne T-226,34.109734,-117.759688,La Verne,CA,91750
9253-96095,Bonita & San Dimas,34.106478,-117.806452,San Dimas,CA,91773
73584-23068,Albertsons-San Dimas #0594,34.105981,-117.803409,San Dimas,CA,91773
29620-254406,Foothill & Lynoak,34.107322,-117.740195,Pomona,CA,91767
6564-65002,Foothill & Claremont,34.107494,-117.704287,Claremont,CA,91711
5229-444,Claremont Village,34.095718,-117.718104,Claremont,CA,91711
6981-85422,"Indian Hill & I-10, Claremont",34.081073,-117.719007,Claremont,CA,91711
27874-248944,Hillhurst and Avocado,34.111138,-118.287198,Los Angeles,CA,90027
24851-239027,Griffith Park & Hyperion,34.107656,-118.273118,Los Angeles,CA,90027
5683-4410,Glendale & Fletcher,34.104072,-118.259012,Los Angeles,CA,90039
5794-19180,Vermont & Prospect,34.10194,-118.291464,Los Angeles,CA,90027
75557-71180,Universal City Walk,34.13666,-118.352734,Universal City,CA,91608
11991-105620,Cahuenga & Barham,34.12959,-118.34854,Los Angeles,CA,90068
27774-238927,Universal Studios Hollywood - Upper,34.137983,-118.355134,Universal City,CA,91608
23352-223786,Universal Studios Hollywood Studio,34.140762,-118.356751,Universal City,CA,91608
5877-29275,Hollywood & Western,34.102031,-118.308946,Los Angeles,CA,90027
74664-94345,Vons-Los Angeles #2665,34.097044,-118.288006,Los Angeles,CA,90028
5379-98393,Sunset Blvd & St Andrews Place,34.098276,-118.311066,Hollywood,CA,90028
5734-8710,Ventura  Vineland,34.140479,-118.369491,Studio City,CA,91604
24933-239266,Western & Fountain,34.09465,-118.309501,Los Angeles,CA,90029
53657-285900,Sunset Blvd & Mohawk,34.077233,-118.264892,Los Angeles,CA,90026
5461-1452,Sunset & Gower,34.097346,-118.322498,Los Angeles,CA,90028
16980-167664,Hollywood & Vine,34.101461,-118.326497,Hollywood,CA,90028
22916-225624,Sunset & Vine,34.097837,-118.326437,Hollywood,CA,90028
5620-1957,Highland & Franklin,34.105349,-118.336826,Hollywood,CA,90068
74543-52099,Vons-Los Angeles #2261,34.069621,-118.290523,Los Angeles,CA,90020
50498-273104,Alvarado & 3rd,34.063045,-118.272333,Los Angeles,CA,90057
49345-258945,Ralphs Los Angeles #32,34.068519,-118.290445,Los Angeles,CA,90020
19883-190684,Cesar Chavez & Broadway,34.058795,-118.240347,Los Angeles,CA,90012
29377-252209,6th & Occidental,34.063792,-118.283948,Los Angeles,CA,90057
51529-252466,Target Express La K-Town,34.063693,-118.286061,Los Angeles,CA,90020
73529-53299,Albertsons-Calabasas #1335,34.144144,-118.700251,Calabasas,CA,91302
5858-27587,"Agoura & Las Virgenes, Calabasas",34.144153,-118.700297,Calabasas,CA,91302
5636-425,Calabasas Rd & Park Granada,34.155112,-118.643038,Calabasas,CA,91302
18869-179006,Mulholland & Calabasas,34.157863,-118.634772,Woodland Hills,CA,91364
635-352,Kanan & Thousand Oaks,34.155863,-118.756563,Agoura,CA,91301
74510-27669,Vons-Agoura Hills #2001,34.153341,-118.758626,Agoura Hills,CA,91301
563-505,Platt & Victory,34.188724,-118.6416,West Hills,CA,91307
10895-103501,Ventura & Shoup,34.168572,-118.615942,Woodland Hills,CA,91364
74573-80139,Pavilions-West Hills #2225,34.189144,-118.64134,West Hills,CA,91307
11603-104000,Topanga Canyon & Dumetz,34.157087,-118.605605,Woodland Hills,CA,91364
47263-244530,Ralphs West Hills #213,34.186871,-118.626513,West Hills,CA,91307
5759-5899,Fallbrook & Victory,34.186739,-118.624243,West Hills,CA,91307
585-305,Topanga Cyn & Ventura,34.169225,-118.605482,Woodland Hills,CA,91367
20788-208089,Target West Hills T-228,34.191251,-118.623365,West Hills,CA,91307
75653-88912,Marriott Warner Center Lobby,34.178498,-118.603603,Woodland Hills,CA,91367
9384-94268,Canoga & Oxnard,34.178939,-118.596746,Woodland Hills,CA,91367
21086-180308,Ventura & De Soto,34.166823,-118.588516,Woodland Hills,CA,91367
639-356,Westfield Topanga - Level 1,34.190959,-118.604526,Canoga Park,CA,91303
76329-95471,Target Woodland Hills T-288,34.167251,-118.584929,Woodland Hills,CA,91364
5485-1517,Victory & Canoga,34.187788,-118.599292,Woodland Hills,CA,91367
21573-205865,Target Westlake Village T-2810,34.147818,-118.793632,Westlake Village,CA,91362
76708-101561,Target Woodland Hills/TopangaT-2143,34.192709,-118.602546,Canoga Park,CA,91303
26928-245711,Topanga Canyon and Gault,34.199056,-118.605741,Canoga Park,CA,91303
561-503,PCH & Cross Creek,34.035196,-118.685088,Malibu,CA,90265
14014-108039,PCH & Webb Way,34.034241,-118.693557,Malibu,CA,90265
50504-265909,Pepperdine - PAYSON LIBRARY LS,34.034738,-118.704284,MALIBU,CA,90263
6473-25947,Canoga & Sherman Way,34.202822,-118.597434,Canoga Park,CA,91303
48887-262952,Ralphs Woodland Hills #70,34.17007,-118.57044,Woodland Hills,CA,91364
5487-1616,Winnetka & Ventura,34.170689,-118.569989,Woodland Hills,CA,91364
11779-106400,Ventura Blvd & Shirley,34.172928,-118.557069,Tarzana,CA,91356
49978-269944,Sherman Way & Winnetka,34.200782,-118.570522,Los Angeles,CA,91306
5959-45579,Tampa & Victory,34.187578,-118.553723,Reseda,CA,91335
74625-94036,Vons-Tarzana #2066,34.168978,-118.534406,Tarzana,CA,91356
16710-161344,DeSoto & Knapp,34.237248,-118.588931,Chatsworth,CA,91311
5318-332,Topanga Canyon & Lassen,34.250758,-118.606281,Chatsworth,CA,91311
20670-184967,Ralphs Encino #6,34.162721,-118.521351,Encino,CA,91316
6745-78191,Reseda & Vanowen,34.194906,-118.53565,Reseda,CA,91335
20770-207884,Sunset & Palisades,34.044865,-118.551606,Pacific Palisades,CA,90272
79627-98609,Vons-Pacific Palisades #2266,34.039577,-118.55437,Pacific Palisades,CA,90272
544-476,Ventura & Louise,34.160776,-118.510383,Encino,CA,91316
29497-253525,Tampa & Nordhoff,34.235761,-118.5539,Los Angeles,CA,91324
79683-108474,Vons - Malibu #2813,34.020761,-118.810042,Malibu,CA,90265
5562-1689,PCH & Trancas Canyon Rd.,34.031127,-118.843117,Malibu,CA,90265
5341-1057,Devonshire & Mason,34.256767,-118.580228,Chatsworth,CA,91311
74621-93750,Vons-Chatsworth #1671,34.256819,-118.578771,Chatsworth,CA,91311
5627-249,Shirley & Plummer,34.242259,-118.55966,Northridge,CA,91324
17853-180644,Northridge Fashion Center,34.238734,-118.55605,Northridge,CA,91324
56506-290154,Macys Northridge Fashion Center,34.239485,-118.555615,Northridge,CA,91324
5861-29276,Rinaldi & Corbin,34.275106,-118.563478,Northridge,CA,91326
54936-281184,"RALPHS - PORTER RANCH, CA#127",34.276114,-118.563416,Porter Ranch,CA,91326
20686-189424,Reseda & Nordhoff,34.234804,-118.535796,Northridge,CA,91324
6459-53039,Reseda & Plummer,34.241712,-118.535859,Northridge,CA,91324
5208-1975,Reseda & Devonshire,34.256616,-118.537063,Northridge,CA,91324
9456-96474,Saticoy & Louise,34.207734,-118.509609,Van Nuys,CA,91406
19305-195844,Roscoe & Balboa,34.220989,-118.502148,Van Nuys,CA,91406
76446-90560,Target Northridge T-2020,34.234581,-118.503151,Northridge,CA,91325
18515-179548,Ralphs Granada Hills #646,34.263411,-118.524142,Granada Hills,CA,91344
5643-201564,Chatsworth & Zelzah,34.265219,-118.523867,Granada Hills,CA,91344
643-360,Ventura & Hayvenhurst,34.157727,-118.491662,Encino,CA,91436
6782-80486,Nordhoff & Woodley,34.235344,-118.485966,North Hills,CA,91343
5207-1974,Devonshire & Balboa,34.256768,-118.499756,Granada Hills,CA,91344
75102-34499,Galpin Motors - Jaguar Showroom,34.220796,-118.470592,Van Nuys,CA,91406
11895-105173,Balboa & Knollwood,34.285393,-118.501266,Granada Hills,CA,91344
76487-111372,Target Granada Hills T-2329,34.272224,-118.50414,Granada Hills,CA,91344
74776-98344,Vons-Granada Hills #2250,34.271866,-118.49975,Granada Hills,CA,91344
5815-8729,Sepulveda & Ventura,34.15579,-118.467069,Sherman Oaks,CA,91403
15580-141904,Target Van Nuys T-1307,34.17416,-118.46633,Van Nuys,CA,91411
5552-796,Ventura & Noble,34.152693,-118.460349,Sherman Oaks,CA,91403
548-491,Ventura & Cedros,34.151261,-118.452072,Sherman Oaks,CA,91403
27261-247044,Van Nuys & Hortense,34.154426,-118.447784,Los Angeles,CA,91403
18373-179549,Ralphs Van Nuys #702,34.171555,-118.44736,Van Nuys,CA,91401
6630-71280,Burbank & Van Nuys,34.172451,-118.447522,Van Nuys,CA,91401
6961-88003,Sherman Way & Sepulveda,34.2014,-118.468279,Van Nuys,CA,91406
19837-171185,Ralphs-Sherman Oaks #222,34.149964,-118.439289,Sherman Oaks,CA,91403
18356-188205,Westfield Fashion Square - Level 1,34.156698,-118.437404,Sherman Oaks,CA,91423
23369-229524,Van Nuys & Hartland,34.195022,-118.449164,Van Nuys,CA,91405
5549-1822,N Beverly Glen & Beverly Glen Crcl,34.127609,-118.443859,Los Angeles,CA,90077
20338-204605,Target Van Nuys T-1309,34.212674,-118.460076,Van Nuys,CA,91405
5777-16654,Ventura & Allot,34.147724,-118.428146,Sherman Oaks,CA,91423
5996-52599,Riverside & Fulton,34.158123,-118.424307,Sherman Oaks,CA,91423
8637-80485,Sepulveda & Nordhoff,34.234621,-118.467262,North Hills,CA,91343
5447-1377,Ventura & Alcove,34.14468,-118.412371,Studio City,CA,91604
6610-66080,Laurel Canyon & Riverside,34.157797,-118.396241,Valley Village,CA,91607
74702-97967,Vons-Studio City #1674,34.144375,-118.395744,Studio City,CA,91604
573-295,Ventura & Vantage,34.143206,-118.397337,Studio City,CA,91604
659-333,Barrington & Sunset,34.064485,-118.4694,Los Angeles,CA,90049
79355-103604,Ralphs-Westwood #759,34.063359,-118.443906,Westwood,CA,90024
5494-404,Broxton & Weyburn,34.062501,-118.447391,Los Angeles,CA,90024
16280-166728,Target LA Westwood T-2774,34.062796,-118.443718,Los Angeles,CA,90024
3575-126987,Von's-West Hollywood #2739,34.083722,-118.386627,West Hollywood,CA,90069
5232-248024,Santa Monica & Robertson,34.084089,-118.385887,West Hollywood,CA,90069
536-364,Westwood & Lindbrook,34.059427,-118.444728,Los Angeles,CA,90024
633-351,Santa Monica & Westmount,34.088283,-118.379078,West Hollywood,CA,90069
5350-902,Sunset Blvd & N. Kings Rd,34.0957,-118.372111,West Hollywood,CA,90069
505-448,N Beverly & S. Santa Monica Blvd,34.070585,-118.402361,Beverly Hills,CA,90210
5401-721,Wilshire & Santa Monica,34.066665,-118.410299,Beverly Hills,CA,90210
14629-128224,Sunset & Crescent Heights,34.09777,-118.365224,Los Angeles,CA,90046
6467-56379,Hollywood & Highland,34.102771,-118.339246,Hollywood,CA,90028
15177-8708,Hollywood & Orange -Madame Tussauds,34.101902,-118.341382,Los Angeles,CA,90028
5775-16414,Hollywood & McCadden,34.101806,-118.337206,Hollywood,CA,90028
21866-169146,"Ralph's- Hollywood, CA #100",34.098715,-118.348393,Los Angeles,CA,90046
5402-1195,Sunset & La Brea,34.098151,-118.343531,Los Angeles,CA,90028
6512-60520,Santa Monica & Fairfax,34.091007,-118.361711,West Hollywood,CA,90046
6729-74640,Santa Monica & La Brea,34.090357,-118.344252,West Hollywood,CA,90046
5871-30359,Beverly & Robertson,34.076993,-118.383543,West Hollywood,CA,90048
75244-90562,Cedars-Sinai Medical Center,34.075081,-118.380376,Los Angeles,CA,90048
624-346,Melrose & Stanley,34.083427,-118.356145,Los Angeles,CA,90046
21467-212349,Target @ West Hollywood T-1884,34.089763,-118.344716,Los Angeles,CA,90046
22601-215486,Highland & Willoughby,34.086929,-118.338858,Los Angeles,CA,90038
74586-39039,Vons-Los Angeles #2229,34.084362,-118.326967,Los Angeles,CA,90038
8658-93562,"Hacienda & Valley, City of Industry",34.020825,-117.958229,Hacienda Heights,CA,91745
10226-98369,"Azusa & Amar, West Covina",34.035404,-117.911915,West Covina,CA,91792
76893-102970,Target West Covina T-2147,34.033373,-117.912013,West covina,CA,91792
74766-98352,Vons-Hacienda Heights #3086,33.994997,-117.967375,Hacienda Heights,CA,91745
13226-106936,"Fairplex & I-10, Pomona",34.071985,-117.788333,Pomona,CA,91768
75469-107379,Cal Poly Pomona Library,34.057571,-117.821379,Pomona,CA,91768
23599-231366,Garey & Alvarado,34.067903,-117.751734,Pomona,CA,91768
6870-76140,"Garey & Mission, Pomona",34.055371,-117.750356,Pomona,CA,91766
6803-41819,"Valley & Grand, Walnut",34.02757,-117.836501,Walnut,CA,91789
28053-248946,Pomona & Temple,34.047573,-117.810869,Pomona,CA,91768
17655-168485,Valley & Lemon,34.009788,-117.859502,Walnut,CA,91789
10540-193704,Fullerton & Gale,33.994883,-117.907047,City of Industry,CA,91748
5288-228806,Azusa and 60 Fwy,33.994568,-117.931162,City of Industry,CA,91748
76189-93365,Target Rowland Heights T-222,33.991982,-117.919,Rowland Heights,CA,91748
6461-46581,"Temple & Mission, Pomona",34.041683,-117.798355,Pomona,CA,91766
5681-219126,Grand & Golden Springs,34.00528,-117.822615,Diamond Bar,CA,91765
76687-102983,Target Diamond Bar T-2179,34.004565,-117.821656,Diamond Bar,CA,91765
19857-198885,Target Pomona T-2831,34.02654,-117.771271,Pomona,CA,91766
5582-1849,Colima Rd. & Fairway Dr.,33.986559,-117.871805,Rowland Heights,CA,91748
10112-97117,"Rio Rancho & The 71, Pomona",34.028421,-117.760779,Pomona,CA,91766
56489-290162,Macy's The Shops at Montebello,34.035834,-118.082042,Montebello,CA,90640
5444-1461,Shops at Montebello-Center Ct,34.036144,-118.083901,Montebello,CA,90640
9452-218446,Beverly & Workman Mill,33.999016,-118.05553,Whittier,CA,90601
8799-95014,"Whittier & Passons, Pico Rivera",33.999401,-118.07869,Pico Rivera,CA,90660
29625-254250,Target - Pico Rivera T-1425,34.002125,-118.085941,Pico Rivera,CA,90660
6750-87601,"Beverly and Montebello, Montebello",34.017453,-118.106213,Montebello,CA,90640
73688-128624,Albertsons - Montebello #1181,34.031353,-118.122282,Montebello,CA,90640
26334-244304,Whittier & Broadway,33.985301,-118.057772,Whittier,CA,90606
5507-1460,Greenleaf & Philadelphia - Whittier,33.979247,-118.037187,Whittier,CA,90601
49421-266065,Whittier & Garfield,34.014505,-118.13034,Montebello,CA,90640
6545-62659,"Washington & Rosemead, Pico Rivera",33.984495,-118.100156,Pico Rivera,CA,90660
24168-231371,Washington & Norwalk,33.972929,-118.073656,Santa Fe Springs,CA,90606
9351-95997,"Washington & Lambert, Whittier",33.966892,-118.048117,Whittier,CA,90606
56258-288764,TARGET COMMERCE T-189,34.017899,-118.150704,Commerce,CA,90022
8657-243615,Whittier & Michigan,33.959923,-118.026636,Whittier,CA,90605
5680-182264,Whittier & Colima,33.948656,-118.007083,Whittier,CA,90605
76398-95640,Target Whittier T-2019,33.942956,-117.996558,Whittier,CA,90603
74921-101340,Vons - Whittier #2027,33.941095,-117.99423,Whittier,CA,90603
6613-247548,Telegraph & Carmenita,33.939307,-118.044493,Santa Fe Springs,CA,90605
5716-220264,Imperial & La Mirada,33.91689,-118.011518,La Mirada,CA,90638
6518-64461,Imperial & Carmenita,33.91673,-118.049406,Santa Fe Springs,CA,90670
24287-231369,Telegraph & Orr and Day,33.94721,-118.086547,Santa Fe Springs,CA,90670
10342-97367,"Rosecrans & La Mirada, La Mirada",33.898429,-118.006816,La Mirada,CA,90638
73570-79972,Albertsons-La Mirada #0148,33.896981,-118.007925,La Mirada,CA,90638
11224-103807,"Diamond Bar & Cold Spring, Diamond",33.974644,-117.837676,Diamond Bar,CA,91765
8636-93711,"Firestone & Long Beach, Southg",33.955165,-118.219045,Southgate,CA,90280
8819-94823,"Gage & Compton, Huntington Park",33.982319,-118.248893,Los Angeles,CA,90001
21800-197225,Central & Slauson,33.987899,-118.257169,Los Angeles,CA,90001
5788-17554,Pacific & Belgrave,33.986986,-118.22552,Huntington Park,CA,90255
16783-164227,MLK & Bullis,33.928199,-118.198762,Lynwood,CA,90262
8780-94588,Slauson & State,33.988944,-118.213774,Huntington Park,CA,90255
49344-258624,Ralphs Los Angeles #274,33.959516,-118.307929,Los Angeles,CA,90047
49966-266425,Firestone & Hildreth,33.952073,-118.186797,South Gate,CA,90280
6510-56259,"Atlantic & Florence, Bell",33.970592,-118.188383,Bell,CA,90201
6580-65700,"Atlantic & Imperial, Lynwood",33.932017,-118.183349,Lynwood,CA,90262
5995-88000,Western & Slauson,33.988896,-118.30987,Los Angeles,CA,90047
25053-238705,Rosecrans & Normandie,33.901697,-118.300137,Gardena,CA,90247
49385-266424,Atlantic & 58th,33.988214,-118.185184,Maywood,CA,90270
76944-131626,Target Hawthorne T-2280,33.922108,-118.321447,Hawthorne,CA,90250
6767-79220,Century & Club Dr,33.945841,-118.331115,Inglewood,CA,90303
3425-85640,"Crenshaw & I-105, Hawthorne",33.924208,-118.325881,Hawthorne,CA,90250
15491-155987,Target Inglewood T-1329,33.947296,-118.333168,Inglewood,CA,90303
3973-146285,Target South Gate T-190,33.949024,-118.16615,South Gate,CA,90280
54682-282272,THE BICYCLE HOTEL & CASINO- LS,33.966372,-118.16611,BELL GARDENS,CA,90201
5834-22761,"Firestone & Garfield, Southgate",33.952159,-118.163922,Southgate,CA,90280
17413-168644,Figueroa & Exposition,34.018589,-118.281769,Los Angeles,CA,90007
5644-261704,Normandie & Redondo Beach Blvd,33.891174,-118.300309,Gardena,CA,90247
6787-79160,Eastern & Florence,33.969163,-118.164243,Bell Gardens,CA,90201
26328-243763,Alameda & 14th,34.025341,-118.239853,Los Angeles,CA,90021
15244-113064,Trojan Grounds @ USC,34.021676,-118.282181,Los Angeles,CA,90007
52257-281105,Figueroa & 31st,34.024127,-118.278189,Los Angeles,CA,90007
22477-221164,Olympic & Soto,34.0247,-118.2202,Los Angeles,CA,90023
52505-281965,Century & Prairie,33.94524,-118.344161,Inglewood,CA,90304
24005-234864,Figueroa & 28th,34.026426,-118.277509,Los Angeles,CA,90007
25043-237829,USC Village,34.024627,-118.284308,Los Angeles,CA,90089
53957-283180,Rosecrans & Crenshaw,33.902627,-118.326263,Gardena,CA,90249
50535-266989,Target Express Usc T-3217,34.025759,-118.284313,Los Angeles,CA,90089
53065-277885,USC - Cafe 84,34.024659,-118.288047,Los Angeles,CA,90089
74581-83081,Vons-Inglewood #2502,33.960257,-118.349168,Inglewood,CA,90301
25583-241264,Paramount & Imperial,33.924152,-118.152771,Downey,CA,90242
76505-99301,Target Gardena T-290,33.886691,-118.316845,Gardena,CA,90247
6859-83043,Atlantic & Washington,34.00306,-118.167174,City of Commerce,CA,90040
25941-242286,Hawthorne Blvd & Imperial,33.930655,-118.353149,Hawthorne,CA,90250
13397-107450,12th & Hill,34.039215,-118.260963,Los Angeles,CA,90015
6608-65303,9th & Santee,34.039857,-118.253353,Los Angeles,CA,90015
48339-262504,Pico & Grand,34.039146,-118.264436,Los Angeles,CA,90015
27711-248469,Jefferson & Western,34.025752,-118.30867,Los Angeles,CA,90018
10939-100965,11th & Grand,34.04152,-118.262318,Los Angeles,CA,90015
5688-5364,Hawthorne & El Segundo,33.916651,-118.351841,Hawthorne,CA,90250
47433-258288,Olympic & Olive,34.042234,-118.259873,Los Angeles,CA,90015
17989-179004,6th & Spring,34.045882,-118.251286,Los Angeles,CA,90014
13222-106449,Olympic & Figueroa (LA LIVE),34.044652,-118.266074,Los Angeles,CA,90015
17331-172467,9th & Flower,34.045488,-118.261393,Los Angeles,CA,90015
6557-65159,2nd & Central,34.047996,-118.23902,Los Angeles,CA,90012
24164-236345,7th & Hope (The Bloc),34.048187,-118.258288,Los Angeles,CA,90017
11233-104456,6th & Grand,34.048767,-118.255048,Los Angeles,CA,90014
24871-239146,5th & Hill (Pershing Square),34.048974,-118.25186,Los Angeles,CA,90013
27702-248365,2nd & San Pedro,34.049327,-118.242036,Los Angeles,CA,90012
16281-166729,Target LA Central T-2776,34.048894,-118.261057,Los Angeles,CA,90017
6577-66220,Figueroa & 7th (FIGat7th),34.0492,-118.260545,Los Angeles,CA,90017
9234-262184,Grand & 5th Gas Co Tower,34.05019,-118.253646,Los Angeles,CA,90013
9973-98128,1st & Los Angeles (Doubletree),34.050864,-118.242203,Los Angeles,CA,90012
17846-183124,Whittier & Goodrich,34.01907,-118.153509,Commerce,CA,90022
6897-81160,"Citadel Outlets, City of Commerce",34.005613,-118.152584,City of Commerce,CA,90040
8779-94589,"Slauson & I-5, Commerce",33.975368,-118.12433,Los Angeles,CA,90040
10659-101520,"Lakewood & Telegraph, Downey",33.961091,-118.110732,Downey,CA,90240
507-450,Larchmont & Beverly,34.074908,-118.323461,Los Angeles,CA,90004
5911-34399,Wilshire & Serrano,34.061435,-118.30632,Los Angeles,CA,90010
54501-286525,6th & Kenmore (Chapman Market),34.063727,-118.297064,Los Angeles,CA,90020
17848-181484,Wilshire & Normandie,34.061451,-118.299522,Los Angeles,CA,90010
22525-213345,Vermont & Wilshire,34.061517,-118.291249,Los Angeles,CA,90010
5488-1453,Wilshire & Highland,34.061907,-118.338895,Los Angeles,CA,90036
25200-156784,"Ralph's-Los Angeles, CA #39",34.070017,-118.343501,Los Angeles,CA,90036
5373-931,Beverly & Detroit,34.07597,-118.344996,Los Angeles,CA,90036
28131-250071,4th and La Brea,34.06716,-118.344308,Los Angeles,CA,90036
9998-98124,Wilshire & Detroit,34.062516,-118.345364,Los Angeles,CA,90036
9506-95463,Pico & San Vicente,34.048457,-118.337222,Los Angeles,CA,90019
6688-75720,Wilshire & Union,34.055731,-118.270301,Los Angeles,CA,90017
22415-184968,Ralphs Los Angeles #289,34.062884,-118.350934,Los Angeles,CA,90036
28278-245232,Ralphs - LA #291,34.047531,-118.339578,Los Angeles,CA,90019
5698-2402,La Brea & San Vicente,34.050936,-118.34401,Los Angeles,CA,90019
9505-96843,"Crenshaw & Washington, Los Angeles",34.040151,-118.330501,Los Angeles,CA,90018
12900-154604,Wilshire & Curson,34.062657,-118.35389,Los Angeles,CA,90036
49792-271151,6th & Bixel,34.054212,-118.26304,Los Angeles,CA,90017
10586-101074,Wilshire & Bixel,34.052078,-118.26327,Los Angeles,CA,90017
5277-313,3rd & Fairfax (Farmers Market),34.071758,-118.360775,Los Angeles,CA,90036
15062-155325,Dwntn LA Union Station Main Concrse,34.056059,-118.235776,Los Angeles,CA,90012
2820-88441,La Brea & Centinela,33.975581,-118.357913,Inglewood,CA,90302
6593-64760,"Crenshaw & Coliseum, Los Angeles",34.01915,-118.334765,Los Angeles,CA,90016
25054-238704,Manchester & Oak,33.961808,-118.366371,Inglewood,CA,90301
49425-266068,La Cienega & Centinela,33.97752,-118.36993,Inglewood,CA,90302
49341-237439,Ralph's - Los Angeles #185,33.978939,-118.371584,Los Angeles,CA,90045
5284-718,CityNatPlz - lower lvl (6th&Flower),34.050606,-118.257392,Los Angeles,CA,90071
5256-714,5th & Figueroa-Union Bank 2nd Level,34.05264,-118.257129,Los Angeles,CA,90071
5291-794,5th & Flower (Citibank),34.051427,-118.255319,Los Angeles,CA,90071
9227-159869,BankAmerica - lower lvl (3rd&Hope),34.05338,-118.253479,Los Angeles,CA,90071
5289-886,Two Cal Plaza,34.051652,-118.251546,Los Angeles,CA,90071
9230-154245,Grand & 1st (Grand Park),34.056126,-118.246984,Los Angeles,CA,90012
21687-212688,Ralphs - Los Angeles #283,34.020441,-118.35481,Los Angeles,CA,90016
76949-131627,Target Los Angeles T-1306,34.023407,-118.373792,Los Angeles,CA,90016
14412-118485,La Cienega & Jefferson,34.026772,-118.371795,Los Angeles,CA,90016
51992-276512,Ralphs - Culver City #284,34.002155,-118.393394,Culver City,CA,90230
76328-97203,Target Culver City T-198,33.999166,-118.393414,Culver City,CA,90230
74574-79834,Vons-Culver City #2212,33.996832,-118.394214,Culver City,CA,90230
5250-901,Venice & Culver,34.027136,-118.392767,Los Angeles,CA,90034
29701-179005,Slauson & Sepulveda,33.988168,-118.392698,Culver City,CA,90230
5771-15093,Washington & Culver,34.022193,-118.39623,Culver City,CA,90232
28051-249448,La Cienega and Airdrome,34.046133,-118.376175,Los Angeles,CA,90035
5095-146865,Target Culver City South T-2632,33.984601,-118.394396,Culver City,CA,90230
5785-5892,Promenade at Howard Hughes Center,33.977779,-118.391756,Los Angeles,CA,90045
50325-273965,Overland & Washington Blvd,34.017095,-118.405418,Culver City,CA,90232
6451-54039,National & Castle Heights,34.03105,-118.400976,Los Angeles,CA,90034
5577-1851,Fairfax & Olympic,34.057977,-118.363745,Los Angeles,CA,90036
17404-175104,Sepulveda & Washington,34.006874,-118.412548,Culver City,CA,90230
5626-1958,Pico & Robertson,34.054929,-118.38354,Los Angeles,CA,90035
8608-93890,Jefferson & Centinela,33.981541,-118.409088,Los Angeles,CA,90230
5758-13907,La Cienega & Gregory Way,34.063584,-118.376354,Beverly Hills,CA,90211
671-312,Olympic & Doheny,34.059476,-118.389593,Beverly Hills,CA,90211
20540-196508,Ralph's - Los Angeles #198,34.055004,-118.39791,Los Angeles,CA,90035
16279-169147,Target LA Beverly T-2775,34.07526,-118.375571,Los Angeles,CA,90048
5257-292,S. Beverly & Charleville,34.064608,-118.39884,Beverly Hills,CA,90212
49423-266066,Florence & Paramount,33.953492,-118.130483,Downey,CA,90240
5567-1752,Westwood & Missouri,34.048356,-118.435384,Westwood,CA,90025
5738-10772,Santa Monica & Pontius,34.047554,-118.445226,West Los Angeles,CA,90025
9233-9082,Avenue of Stars & Constellation,34.058668,-118.416599,Century City,CA,90067
9232-9081,Century Park East & Constellation,34.061035,-118.414937,Century City,CA,90067
9228-9080,Century Park East & Olympic,34.058995,-118.413203,Century City,CA,90067
5565-1850,Olympic & Westwood,34.04316,-118.431672,Los Angeles,CA,90064
546-489,Pico & Midvale,34.039601,-118.429978,Los Angeles,CA,90064
5337-1197,Olympic & Sawtelle,34.038106,-118.440928,Los Angeles,CA,90064
508-451,San Vicente & Barrington,34.053728,-118.466123,Los Angeles,CA,90049
18381-179547,Ralphs Los Angeles #210,34.034706,-118.449013,Los Angeles,CA,90064
22711-223785,Ralph's - Los Angeles #44,34.044893,-118.467009,Los Angeles,CA,90025
5213-293,Santa Monica & Bundy,34.040344,-118.463325,West Los Angeles,CA,90025
26527-244452,Sepulveda & National,34.027255,-118.427764,Los Angeles,CA,90034
53505-281185,RALPHS - LOS ANGELES #709,34.026325,-118.432704,Los Angeles,CA,90064
74737-98608,Vons-Los Angeles #2077,34.026617,-118.427083,Los Angeles,CA,90034
5394-981,National & Barrington,34.022724,-118.43899,Los Angeles,CA,90064
647-365,Wilshire & 26th,34.036049,-118.477694,Santa Monica,CA,90403
23517-218564,Pico & Stewart,34.024321,-118.460833,Santa Monica,CA,90405
7975-95815,Santa Monica & 26th,34.03272,-118.475271,Santa Monica,CA,90404
5493-1376,Ocean Park & 29th,34.019695,-118.454751,Santa Monica,CA,90405
18380-179545,Ralphs Santa Monica #292,34.027324,-118.473417,Santa Monica,CA,90404
5826-5897,Colorado & Cloverfield,34.02732,-118.474858,Santa Monica,CA,90404
574-296,15th & Montana,34.032754,-118.494233,Santa Monica,CA,90403
74799-98878,Vons-Santa Monica #2002,34.026745,-118.489943,Santa Monica,CA,90403
19895-184244,Wilshire & 11th,34.024267,-118.49168,Santa Monica,CA,90403
22640-223084,Venice & Centinela,34.003247,-118.433707,Los Angeles,CA,90066
22065-217151,Lincoln & Pico,34.01207,-118.483048,Santa Monica,CA,90405
74781-98357,Vons-Santa Monica #2262,34.017371,-118.489905,Santa Monica,CA,90401
5667-2401,Lincoln & Marine,34.003455,-118.471965,Santa Monica,CA,90405
79544-104485,Vons - Santa Monica #2231,34.02775,-118.500081,Santa Monica,CA,90403
20538-186785,Ralphs Venice #281,33.999087,-118.461491,Venice,CA,90291
529-473,7th & Montana,34.027019,-118.501826,Santa Monica,CA,90403
25579-237064,Santa Monica Place Mall - East Wing,34.013974,-118.493197,Santa Monica,CA,90401
6861-83040,3rd & Santa Monica-3rd St Promenade,34.015792,-118.496476,Santa Monica,CA,90401
22382-220265,Olympic & Main,34.010658,-118.491559,Santa Monica,CA,90401
28281-247824,Ralphs Downey #295,33.936211,-118.127132,Downey,CA,90241
5813-21161,"Firestone & Lakewood, Downey",33.935682,-118.123594,Downey,CA,90241
6672-68905,Downey Landing,33.927755,-118.129326,Downey,CA,90242
15586-142024,Target Norwalk T-1340,33.926086,-118.106735,Norwalk,CA,90650
25587-241084,Bellflower Blvd & Imperial,33.916763,-118.125099,Downey,CA,90242
15626-157284,"Firestone & Studebaker, Norwalk",33.921985,-118.097899,Norwalk,CA,90650
14154-113344,"Hawthorne Blvd & 149th St, Lawndale",33.896689,-118.352108,Lawndale,CA,90260
51650-278826,Crenshaw & 164th,33.881763,-118.326237,Torrance,CA,90504
75628-38879,Marriott Los Angeles Int'l Airport,33.946481,-118.384511,Los Angeles,CA,90045
5878-29655,"Rosecrans & Oceangate, Hawthorne",33.901441,-118.36676,Hawthorne,CA,90250
14627-123604,Douglas & Maple,33.927354,-118.383729,El Segundo,CA,90245
26529-239124,Residence Inn @ LAX,33.945608,-118.38732,Los Angeles,CA,90045
74868-94831,Vons - Redondo Beach #1623,33.892834,-118.362248,Redondo Beach,CA,90278
75810-94544,Sheraton Gateway Hotel,33.946424,-118.39094,Los Angeles,CA,90045
5840-26567,"Rosecrans & The 405 Fwy, Hawthorne",33.901253,-118.37418,Hawthorne,CA,90250
6687-69960,"Artesia & Prairie, Torrance",33.873142,-118.343115,Torrance,CA,90504
14211-113350,Sepulveda & 89th,33.956054,-118.395965,Westchester,CA,90045
5244-318,La Tijera & Sepulveda,33.956721,-118.396908,Los Angeles,CA,90045
29552-253805,Ralphs - Los Angeles #209,33.956077,-118.39775,Los Angeles,CA,90045
72305-4330,LAX - Terminal 2 Baggage Claim,33.945458,-118.403349,Los Angeles,CA,90045
24673-238029,LAX - Terminal 2 Departures,33.946439,-118.404189,Los Angeles,CA,90045
26137-242689,LAX T6 Evenings Gate 60,33.94254,-118.402047,Los Angeles,CA,90045
26131-243427,LAX T6 Baggage Claim,33.942785,-118.402509,Los Angeles,CA,90045
72328-5831,LAX Terminal- 3,33.946679,-118.407319,Los Angeles,CA,90045
16928-172185,LAX T4-Baggage Claim,33.94222,-118.407007,Los Angeles,CA,90045
19448-193605,LAX - Tom Bradley Evenings Gate 157,33.946107,-118.410766,Los Angeles,CA,90045
19087-193606,LAX - Great Hall,33.942496,-118.410518,Los Angeles,CA,90045
20401-196507,Ralph's - Los Angeles #278,33.958057,-118.418785,Los Angeles,CA,90045
25813-241711,Lincoln & 84th,33.961752,-118.420077,Los Angeles,CA,90045
5502-1658,Sepulveda & Mariposa,33.922874,-118.395938,El Segundo,CA,90245
47954-244729,Ralphs El Segundo #645,33.922085,-118.395551,El Segundo,CA,90245
27526-235424,Loyola Marymount University - Libra,33.970631,-118.419194,Los Angeles,CA,90045
22881-225524,Runway & McConnell,33.976482,-118.417574,Playa Vista,CA,90094
7956-95418,Grand & Eucalyptus,33.919085,-118.41336,El Segundo,CA,90245
11954-105938,"Rosecrans & Sepulveda, El Segundo",33.905051,-118.394056,El Segundo,CA,90245
5349-263,Rosecrans & Douglas - El Segundo,33.902274,-118.383552,El Segundo,CA,90245
9545-96910,Lincoln & Fiji,33.978713,-118.437818,Marina del Rey,CA,90292
18449-179546,Ralphs Marina Del Rey #279,33.979798,-118.438958,Marina Del Rey,CA,90292
79706-98880,Vons - Marina Del Rey #2105,33.985192,-118.439397,Marina Del Rey,CA,90292
14966-155986,"Ralph's-Manhattan Beach, CA #166",33.896166,-118.394455,Manhattan Beach,CA,90266
21686-214165,Ralph's - Marina Del Rey #280,33.984308,-118.443003,Marina Del Rey,CA,92092
616-341,Lincoln & Maxella,33.985986,-118.443085,Marina Del Rey,CA,90292
609-324,Sunset & Swarthmore,34.047223,-118.526011,Pacific Palisades,CA,90272
29700-254775,Rosecrans & Downey,33.903523,-118.150612,Paramount,CA,90723
5859-27698,"Hawthorne & Artesia, Torrance",33.872473,-118.352071,Torrance,CA,90504
27005-97579,Ralphs-Redondo Beach #120,33.866984,-118.353569,Redondo Beach,CA,90278
27703-248284,Hawthorne & 182nd,33.864437,-118.352084,Torrance,CA,90504
76433-95641,Target Redondo Beach T-1980,33.869071,-118.357302,Redondo Beach,CA,90278
5713-5903,Washington & Walnut Ave,33.991344,-118.446519,Marina Del Rey,CA,90292
5275-747,Washington & Pacific,33.979666,-118.465363,Marina Del Rey,CA,90292
54500-286448,Ocean Front Walk & Breeze,33.990167,-118.476391,Venice,CA,90291
506-449,Main & Hill,34.001127,-118.482494,Santa Monica,CA,90405
10626-101189,"Rosecrans & Bellflower, Bellflower",33.901744,-118.125603,Bellflower,CA,90706
6951-212904,Rosecrans & Studebaker,33.902418,-118.09929,Norwalk,CA,90650
9546-97058,"Firestone & Pioneer, Norwalk",33.912413,-118.08214,Norwalk,CA,90650
25006-237487,Target Norwalk T-1424,33.918144,-118.075239,Norwalk,CA,90650
6571-65302,"South & Woodruff, Lakewood",33.858028,-118.115698,Lakewood,CA,90713
74761-92740,Pavilions-Lakewood #2209,33.856845,-118.11563,Lakewood,CA,90713
50943-275224,Alondra Blvd & Studebaker,33.886923,-118.100423,Cerritos,CA,90703
27974-249305,Pioneer & Rosecrans,33.901447,-118.082316,Norwalk,CA,90650
10140-99707,"Rosecrans & Shoemaker, Norwalk",33.902658,-118.054996,Norwalk,CA,90650
2989-93580,"Pioneer & Artesia, Artesia",33.874593,-118.08199,Artesia,CA,90701
29347-214906,Los Cerritos Center,33.861193,-118.093434,Cerritos,CA,90703
76330-95469,Target Manhattan Beach T-199,33.888347,-118.394646,Manhattan Beach,CA,90266
542-486,Manhattan Beach & Highland,33.885188,-118.409891,Manhattan Beach,CA,90266
5546-1686,Artesia & Flagler - Redondo Bch.,33.872474,-118.378571,Redondo Beach,CA,90278
74685-96540,Vons-Hermosa Beach #2110,33.864937,-118.394035,Hermosa Beach,CA,90254
5821-5506,"Hermosa & 13th, Hermosa Beach",33.863055,-118.40041,Hermosa Beach,CA,90254
5201-291,PCH & Aviation,33.863442,-118.392177,Hermosa Beach,CA,90254
5720-5663,190th & Anza,33.85776,-118.36518,Torrance,CA,90503
5955-37559,"Gridley & South, Cerritos",33.858789,-118.090567,Cerritos,CA,90703
8163-154016,Target Cerritos West T-1305,33.85847,-118.087982,Cerritos,CA,90703
578-300,Town Center Dr & Bloomfield,33.871018,-118.059537,Cerritos,CA,90703
8708-278787,Pioneer & Del Amo,33.846203,-118.084478,Lakewood,CA,90715
74923-102348,Vons - Lakewood #1638,33.835137,-118.115422,Lakewood,CA,90713
6656-71400,"Crenshaw & Sepulveda, Torrance",33.823617,-118.328233,Torrance,CA,90501
75867-86520,Marriott Torrance,33.835783,-118.349965,Torrance,CA,90503
10819-102571,Del Amo Fash Center-L2 East Wing,33.833111,-118.347868,Torrance,CA,90503
656-219067,Del Amo FashCtr-Level 2/Macys Court,33.832391,-118.349466,Torrance,CA,90503
56505-290153,Macys Del Amo Fashion Center,33.832626,-118.350449,Torrance,CA,90503
5714-7927,Torrance & Hawthorne,33.837151,-118.355389,Torrance,CA,90503
29628-254251,Target Torrance T-0200,33.825128,-118.345761,Torrance,CA,90505
6802-81661,"Sepulveda & Anza, Torrance",33.826382,-118.359562,Torrance,CA,90505
74511-25707,Vons-Torrance #3517,33.804343,-118.328051,Torrance,CA,90505
524-468,Torrance Crossroads,33.804398,-118.33023,Torrance,CA,90505
5551-1764,Pacific Coast Hwy. & Hawthorne,33.805165,-118.350737,Torrance,CA,90505
5617-1916,Pacific Coast Hwy & Diamond St.,33.845363,-118.387054,Redondo Beach,CA,90277
583-232,Riviera Village (Redondo Beach),33.818525,-118.385653,Redondo Beach,CA,90277
5246-316,Pacific Plaza (PCH/Calle Mayor),33.812606,-118.367621,Torrance,CA,90505
49422-266067,PCH & Anza Ave,33.807253,-118.357684,Torrance,CA,90505
5819-21121,Promenade on the Peninsula,33.771344,-118.373032,Rolling Hills,CA,90274
518-462,Silver Spur & Hawthorne,33.774817,-118.376031,Rolling Hills Estates,CA,90274
74241-25927,Vons-Rolling Hills Estates #2233,33.775571,-118.377767,Rolling Hills Estates,CA,90274
6849-79123,"Crenshaw & Airport, Torrance",33.793652,-118.330085,Torrance,CA,90505
5843-27328,"Palos Verdes & Western, Harbor City",33.779298,-118.309145,Harbor City,CA,90710
26327-243809,PCH & Western,33.789301,-118.308671,Lomita,CA,90717
6431-37099,"Western & Westmont, San Pedro",33.763238,-118.310973,San Pedro,CA,90732
50223-271664,Albertsons - San Pedro #699,33.764909,-118.30999,SAN PEDRO,CA,90732
17631-171184,Ralphs-Palos Verdes #720,33.760462,-118.394708,Rancho Palos Verdes,CA,90275
47274-257045,Ralphs San Pedro #87,33.753325,-118.308908,San Pedro,CA,90732
76985-136849,Target San Pedro T-2470,33.760448,-118.293303,San Pedro,CA,90731
6926-88400,Palos Verdes Dr. West & Hawthorne,33.748822,-118.407148,Rancho Palos Verdes,CA,90275
11868-105618,"Gaffey & 5th, San Pedro",33.739891,-118.292107,San Pedro,CA,90731
5694-5504,Western & 25th,33.72334,-118.312054,San Pedro,CA,90732
28906-250267,Gaffey & 9th,33.736216,-118.292145,San Pedro,CA,90731
74609-90934,Vons-San Pedro #2162,33.721737,-118.30995,San Pedro,CA,90732
79519-103403,Vons - San Pedro #2283,33.7365,-118.2879,San Pedro,CA,90731
9327-96152,Valley View & Alondra,33.88773,-118.029256,Santa Fe Springs,CA,90670
53769-280825,"RALPHS - CERRITOS, CA #83",33.860072,-118.047406,Cerritos,CA,90703
24585-235445,Target Cerritos T-289,33.847133,-118.063335,Cerritos,CA,90703
20390-205006,Carson & Norwalk,33.831719,-118.074094,Hawaiian Gardens,CA,90716
5578-1516,Carson & Long Beach Towne Center Dr,33.829539,-118.086501,Long Beach,CA,90808
22821-224705,Spring & Palo Verde,33.810184,-118.105527,Long Beach,CA,90815
74605-79833,Pavilions-Long Beach #2203,33.810738,-118.115715,Long Beach,CA,90808
79747-136393,Von's - Long Beach #2280,33.759776,-118.147131,Long Beach,CA,90803
579-301,2nd & Covina,33.759984,-118.133684,Long Beach,CA,90803
29755-254260,Target Long Beach T-0195,33.798045,-118.125189,Long Beach,CA,90815
17553-164224,Bellflower & Stearns,33.796022,-118.124864,Long Beach,CA,90815
6865-84720,Stearns & Palo Verde,33.79586,-118.10801,Long Beach,CA,90815
75370-102971,CSU Long Beach - Dining Plaza,33.780718,-118.114101,Long Beach,CA,90840
75377-103561,CSU long beach/long beach Library,33.777119,-118.114751,Long Beach,CA,90840
10138-99888,7th & Park,33.775185,-118.137605,Long Beach,CA,90804
29629-254259,Target Express - Long Beach T-3225,33.774349,-118.11958,Long Beach,CA,90803
21821-215006,Ralph's - Long Beach #178,33.760978,-118.116026,Long Beach,CA,90803
5255-289,PCH & Marina Pacifica Mall,33.75973,-118.114645,Long Beach,CA,90803
